{
  "name": "INTELSAT",
  "date": "2020-03-06 15:56:41 CET",
  "tles": [{
    "INTELSAT 26         [PM]": [
      "1 24732C 97007A   20063.35069444  .00000108  00000-0  00000-0 0   638",
      "2 24732   8.8922  43.6327 0002574 328.5414 339.3298  1.00265823    14"
    ],
    "INTELSAT 26": [
      "1 24732C 97007A   20064.00000000  .00000108  00000-0  00000-0 0   645",
      "2 24732   8.8928  43.6074 0008076 303.0496 239.1829  1.00275051    11"
    ],
    "INTELSAT 26-1": [
      "1 24732C 97007A   20065.00000000  .00000108  00000-0  00000-0 0   657",
      "2 24732   8.8934  43.6051 0008167 303.8594 239.3583  1.00275139    17"
    ],
    "GALAXY 25": [
      "1 24812C 97026A   20064.00000000  .00000246  00000-0  00000-0 0   648",
      "2 24812   1.6763  91.3535 0002951 252.3253 211.4197  1.00272139    18"
    ],
    "GALAXY 25-1": [
      "1 24812C 97026A   20065.00000000  .00000246  00000-0  00000-0 0   650",
      "2 24812   1.6787  91.3880 0003007 254.7709 209.9270  1.00272292    16"
    ],
    "GALAXY 25           [PM]": [
      "1 24812C 97026A   20067.67259259  .00000246  00000-0  00000-0 0   679",
      "2 24812   1.6885  78.4832 0003029 249.3533 113.0137  1.00269785    17"
    ],
    "INTELSAT 5          [PM]": [
      "1 24916C 97046A   20063.51267361  .00000186  00000-0  00000-0 0   637",
      "2 24916   5.4950  66.1530 0003381 287.9417 215.1994  1.00269526    14"
    ],
    "INTELSAT 5": [
      "1 24916C 97046A   20064.00000000  .00000186  00000-0  00000-0 0   648",
      "2 24916   5.4961  66.1508 0001537 264.6109  54.4505  1.00268581    14"
    ],
    "INTELSAT 5-1": [
      "1 24916C 97046A   20065.00000000  .00000186  00000-0  00000-0 0   650",
      "2 24916   5.4976  66.1558 0001559 270.1827  49.8551  1.00268589    15"
    ],
    "GALAXY 11": [
      "1 26038C 99071A   20062.00000000 -.00000072  00000-0  00000-0 0   626",
      "2 26038   0.9593  98.0015 0000733 217.0284 112.1083  1.00271333    14"
    ],
    "GALAXY 11-1": [
      "1 26038C 99071A   20065.00000000 -.00000072  00000-0  00000-0 0   652",
      "2 26038   0.9680  98.1400 0000878 220.2967 111.6626  1.00270407    12"
    ],
    "INTELSAT 9": [
      "1 26451C 00043A   20064.00000000 -.00000144  00000-0  00000-0 0   640",
      "2 26451   5.4858  66.3460 0005026 299.3527 122.9972  1.00098923    10"
    ],
    "INTELSAT 9          [PM]": [
      "1 26451C 00043A   20064.76532407 -.00000146  00000-0  00000-0 0   646",
      "2 26451   5.4873  66.3358 0003756 290.0042  48.1500  1.00097396    10"
    ],
    "INTELSAT 9-1": [
      "1 26451C 00043A   20065.00000000 -.00000146  00000-0  00000-0 0   654",
      "2 26451   5.4874  66.3504 0005163 300.1309 122.5757  1.00098233    19"
    ],
    "INTELSAT 12": [
      "1 26590C 00068A   20064.00000000  .00000104  00000-0  00000-0 0   646",
      "2 26590   2.6869  87.1351 0003510 267.7348 231.5838  1.00272661    12"
    ],
    "INTELSAT 12-1": [
      "1 26590C 00068A   20065.00000000  .00000104  00000-0  00000-0 0   658",
      "2 26590   2.6892  87.1546 0003605 269.5914 230.6971  1.00272564    18"
    ],
    "INTELSAT 12         [PM]": [
      "1 26590C 00068A   20065.19270833  .00000104  00000-0  00000-0 0   651",
      "2 26590   2.6896  87.1526 0003758 265.5907 304.2621  1.00271564    16"
    ],
    "INTELSAT 1R": [
      "1 26608C 00072A   20062.00000000 -.00000047  00000-0  00000-0 0   624",
      "2 26608   2.4769  86.7289 0000581 192.8591  37.7445  1.00271245    14"
    ],
    "INTELSAT 1R-1": [
      "1 26608C 00072A   20065.00000000 -.00000047  00000-0  00000-0 0   650",
      "2 26608   2.4860  86.7761 0000811 196.6794  36.8335  1.00270232    17"
    ],
    "INTELSAT 10": [
      "1 26766C 01019A   20064.00000000  .00000217  00000-0  00000-0 0   643",
      "2 26766   3.6541  79.6895 0002395 268.3678 221.6439  1.00272609    16"
    ],
    "INTELSAT 10-1": [
      "1 26766C 01019A   20065.00000000  .00000217  00000-0  00000-0 0   655",
      "2 26766   3.6561  79.7025 0002474 270.0887 220.9015  1.00272752    15"
    ],
    "INTELSAT 10         [PM]": [
      "1 26766C 01019A   20068.11813657  .00000217  00000-0  00000-0 0   683",
      "2 26766   3.6605  79.6918 0002992 265.7515 270.8679  1.00268903    11"
    ],
    "INTELSAT 901        [PM]": [
      "1 26824C 01024A   20039.60763889  .00000206  00000-0  00000-0 0   393",
      "2 26824   1.6017  91.5651 0000652 358.5038 104.2553  0.99199868    11"
    ],
    "INTELSAT 901": [
      "1 26824C 01024A   20058.00000000 -.00000255  00000-0  00000-0 0   583",
      "2 26824   1.6423  91.3343 0002042 337.4981 213.9513  0.99202588    14"
    ],
    "INTELSAT 901-1": [
      "1 26824C 01024A   20062.00000000 -.00000249  00000-0  00000-0 0   626",
      "2 26824   1.6536  91.2327 0002266 333.6040 206.4500  0.99200428    16"
    ],
    "INTELSAT 902": [
      "1 26900C 01039A   20064.00000000 -.00000088  00000-0  00000-0 0   642",
      "2 26900   0.3700  98.0426 0005788 259.7697 141.1031  1.00064358    10"
    ],
    "INTELSAT 902-1": [
      "1 26900C 01039A   20065.00000000 -.00000093  00000-0  00000-0 0   650",
      "2 26900   0.3728  98.2387 0005868 260.3188 140.5952  1.00063771    13"
    ],
    "INTELSAT 904": [
      "1 27380C 02007A   20064.00000000 -.00000123  00000-0  00000-0 0   641",
      "2 27380   1.2101  94.3962 0002861 243.7378 154.5733  1.00272288    10"
    ],
    "INTELSAT 904-1": [
      "1 27380C 02007A   20065.00000000 -.00000123  00000-0  00000-0 0   653",
      "2 27380   1.2127  94.4472 0002917 245.9312 153.3150  1.00271604    10"
    ],
    "INTELSAT 904        [PM]": [
      "1 27380C 02007A   20067.85728009 -.00000123  00000-0  00000-0 0   676",
      "2 27380   1.2176  94.5188 0002975 251.6142  98.9903  1.00271550    18"
    ],
    "INTELSAT 903": [
      "1 27403C 02016A   20064.00000000 -.00000134  00000-0  00000-0 0   649",
      "2 27403   2.0406  89.5951 0001582 287.1433 113.9615  1.00276265    17"
    ],
    "INTELSAT 903        [PM]": [
      "1 27403C 02016A   20064.36597222 -.00000134  00000-0  00000-0 0   645",
      "2 27403   2.0428  86.3304 0001776 274.4284 262.0579  1.00273096    10"
    ],
    "INTELSAT 903-1": [
      "1 27403C 02016A   20065.00000000 -.00000134  00000-0  00000-0 0   651",
      "2 27403   2.0431  89.6244 0001614 283.1742 118.8947  1.00272757    10"
    ],
    "INTELSAT 905        [PM]": [
      "1 27438C 02027A   20058.65401620 -.00000094  00000-0  00000-0 0   584",
      "2 27438   1.0144  95.4333 0002648 233.0274  39.4068  1.00272752    11"
    ],
    "INTELSAT 905": [
      "1 27438C 02027A   20064.00000000 -.00000094  00000-0  00000-0 0   644",
      "2 27438   1.0301  95.3641 0002806 243.1671 159.1734  1.00272104    17"
    ],
    "INTELSAT 905-1": [
      "1 27438C 02027A   20065.00000000 -.00000094  00000-0  00000-0 0   656",
      "2 27438   1.0328  95.4292 0002862 245.3065 157.9547  1.00271549    12"
    ],
    "GALAXY 3C": [
      "1 27445C 02030A   20062.00000000 -.00000061  00000-0  00000-0 0   626",
      "2 27445   0.0194 263.9223 0002280  63.6420  97.6287  1.00271002    11"
    ],
    "GALAXY 3C-1": [
      "1 27445C 02030A   20065.00000000 -.00000037  00000-0  00000-0 0   655",
      "2 27445   0.0044 213.6739 0002125 107.9083 106.5704  1.00269546    18"
    ],
    "INTELSAT 906": [
      "1 27513C 02041A   20064.00000000  .00000105  00000-0  00000-0 0   646",
      "2 27513   0.0360 122.3422 0002461 205.8498 258.1476  1.00271822    11"
    ],
    "INTELSAT 906        [PM]": [
      "1 27513C 02041A   20064.55648148  .00000105  00000-0  00000-0 0   647",
      "2 27513   0.0377 122.3308 0002467 206.8388  98.0523  1.00271186    14"
    ],
    "INTELSAT 906-1": [
      "1 27513C 02041A   20065.00000000  .00000105  00000-0  00000-0 0   658",
      "2 27513   0.0389 122.4379 0002484 208.2560 256.6310  1.00271724    17"
    ],
    "INTELSAT 907": [
      "1 27683C 03007A   20064.00000000 -.00000112  00000-0  00000-0 0   646",
      "2 27683   0.0012 137.9717 0002726 210.0616 146.6730  1.00271302    13"
    ],
    "INTELSAT 907-1": [
      "1 27683C 03007A   20065.00000000 -.00000112  00000-0  00000-0 0   658",
      "2 27683   0.0043 134.8277 0002791 214.9288 145.9328  1.00270690    18"
    ],
    "INTELSAT 907        [PM]": [
      "1 27683C 03007A   20068.33055556 -.00000112  00000-0  00000-0 0   686",
      "2 27683   0.0107 135.9848 0002866 212.4241 269.5560  1.00272456    13"
    ],
    "GALAXY 12": [
      "1 27715C 03013B   20064.00000000  .00000149  00000-0  00000-0 0   648",
      "2 27715   1.2461  93.5218 0002074 241.4810  58.1897  1.00271040    13"
    ],
    "GALAXY 12-1": [
      "1 27715C 03013B   20065.00000000  .00000149  00000-0  00000-0 0   650",
      "2 27715   1.2486  93.5729 0002101 243.6622  56.9428  1.00270870    19"
    ],
    "GALAXY 12           [PM]": [
      "1 27715C 03013B   20070.62515046  .00000149  00000-0  00000-0 0   701",
      "2 27715   1.2587  93.5116 0002270 270.5390 260.7263  1.00270530    14"
    ],
    "GALAXY 23": [
      "1 27854C 03034A   20064.00000000  .00000103  00000-0  00000-0 0   645",
      "2 27854   0.0487 277.9802 0003189  60.1232  63.0902  1.00271550    19"
    ],
    "GALAXY 23-1": [
      "1 27854C 03034A   20065.00000000  .00000103  00000-0  00000-0 0   657",
      "2 27854   0.0480 276.6596 0003210  63.1083  62.4126  1.00271362    12"
    ],
    "GALAXY 23           [PM]": [
      "1 27854C 03034A   20069.59228009  .00000082  00000-0  00000-0 0   696",
      "2 27854   0.0407 254.4923 0003314 100.3355 265.1036  1.00270779    13"
    ],
    "GALAXY 13           [PM]": [
      "1 27954C 03044A   20063.75052083 -.00000191  00000-0  00000-0 0   633",
      "2 27954   0.0350 318.8270 0001421  38.0468 308.2449  1.00270713    15"
    ],
    "GALAXY 13": [
      "1 27954C 03044A   20064.00000000  .00000138  00000-0  00000-0 0   645",
      "2 27954   0.0005 170.3664 0001404 188.7004  36.1094  1.00270652    15"
    ],
    "GALAXY 13-1": [
      "1 27954C 03044A   20065.00000000  .00000135  00000-0  00000-0 0   654",
      "2 27954   0.0014 158.8404 0000860 101.7849 135.5364  1.00297906    10"
    ],
    "INTELSAT 10-02": [
      "1 28358C 04022A   20062.00000000  .00000079  00000-0  00000-0 0   621",
      "2 28358   0.0008 135.8017 0002782 217.9118 165.5089  1.00272623    17"
    ],
    "INTELSAT 10-02      [PM]": [
      "1 28358C 04022A   20064.82916667  .00000076  00000-0  00000-0 0   647",
      "2 28358   0.0020 176.8950 0002873 178.4405 105.1844  1.00271614    11"
    ],
    "INTELSAT 10-02-1": [
      "1 28358C 04022A   20065.00000000  .00000077  00000-0  00000-0 0   655",
      "2 28358   0.0026 179.6587 0002865 178.2860 164.2421  1.00272043    12"
    ],
    "GALAXY 28": [
      "1 28702C 05022A   20062.00000000 -.00000095  00000-0  00000-0 0   624",
      "2 28702   0.0127 105.9269 0002451 233.1744  92.1261  1.00271119    13"
    ],
    "GALAXY 28-1": [
      "1 28702C 05022A   20065.00000000 -.00000095  00000-0  00000-0 0   650",
      "2 28702   0.0223 106.7663 0002669 232.8881  94.5429  1.00273281    10"
    ],
    "GALAXY 28           [PM]": [
      "1 28702C 05022A   20065.06872685 -.00000095  00000-0  00000-0 0   652",
      "2 28702   0.0107 115.0420 0002563 228.9654 115.0000  1.00270046    12"
    ],
    "GALAXY 14           [PM]": [
      "1 28790C 05030A   20062.84509259  .00000127  00000-0  00000-0 0   627",
      "2 28790   0.0542 302.3365 0002508  30.8680   7.0964  1.00270934    14"
    ],
    "GALAXY 14": [
      "1 28790C 05030A   20064.00000000  .00000131  00000-0  00000-0 0   644",
      "2 28790   0.0505 304.9652 0002548  29.1641  63.0742  1.00270898    17"
    ],
    "GALAXY 14-1": [
      "1 28790C 05030A   20065.00000000  .00000120  00000-0  00000-0 0   654",
      "2 28790   0.0491 307.8666 0002574  28.0116  62.3095  1.00270717    15"
    ],
    "GALAXY 15": [
      "1 28884C 05041A   20064.00000000  .00000169  00000-0  00000-0 0   641",
      "2 28884   0.0519 283.7316 0001878  49.5083  55.9640  1.00272578    12"
    ],
    "GALAXY 15-1": [
      "1 28884C 05041A   20065.00000000  .00000169  00000-0  00000-0 0   653",
      "2 28884   0.0509 283.5721 0002016  49.4359  57.1845  1.00270342    17"
    ],
    "GALAXY 15           [PM]": [
      "1 28884C 05041A   20065.54166667  .00000169  00000-0  00000-0 0   654",
      "2 28884   0.0509 282.9192 0002085  51.7182 251.0869  1.00270946    19"
    ],
    "GALAXY 16           [PM]": [
      "1 29236C 06023A   20062.58333333 -.00000037  00000-0  00000-0 0   626",
      "2 29236   0.0186 242.5747 0003104 103.8083 285.4237  1.00272569    15"
    ],
    "GALAXY 16": [
      "1 29236C 06023A   20064.00000000 -.00000037  00000-0  00000-0 0   649",
      "2 29236   0.0047 192.7654 0003159 154.9065  75.5341  1.00271949    16"
    ],
    "GALAXY 16-1": [
      "1 29236C 06023A   20065.00000000 -.00000037  00000-0  00000-0 0   651",
      "2 29236   0.0027 174.8267 0003209 174.6847  74.6819  1.00271412    13"
    ],
    "GALAXY 17": [
      "1 31307C 07016B   20064.00000000 -.00000084  00000-0  00000-0 0   646",
      "2 31307   0.0268  88.7402 0003371 248.7104  93.7490  1.00272443    17"
    ],
    "GALAXY 17-1": [
      "1 31307C 07016B   20065.00000000 -.00000084  00000-0  00000-0 0   658",
      "2 31307   0.0289  92.2950 0003399 246.8871  93.0062  1.00271845    11"
    ],
    "GALAXY 17           [PM]": [
      "1 31307C 07016B   20066.07813657 -.00000200  00000-0  00000-0 0   667",
      "2 31307   0.0416 323.5071 0003351  20.3901 117.4850  1.00268844    15"
    ],
    "INTELSAT 11": [
      "1 32253C 07044B   20064.00000000 -.00000178  00000-0  00000-0 0   642",
      "2 32253   0.0068 122.3365 0001598 227.1518 129.7274  1.00271012    19"
    ],
    "INTELSAT 11-1": [
      "1 32253C 07044B   20065.00000000 -.00000178  00000-0  00000-0 0   654",
      "2 32253   0.0099 122.4570 0001663 229.5791 128.1616  1.00270233    11"
    ],
    "INTELSAT 11         [PM]": [
      "1 32253C 07044B   20066.88125000 -.00000178  00000-0  00000-0 0   660",
      "2 32253   0.0142 125.4453 0001697 223.4861  90.3590  1.00273306    16"
    ],
    "HORIZONS 2": [
      "1 32388C 07063B   20064.00000000 -.00000092  00000-0  00000-0 0   647",
      "2 32388   0.0009 195.8000 0003021 140.8951 270.3524  1.00271020    19"
    ],
    "HORIZONS 2-1": [
      "1 32388C 07063B   20065.00000000 -.00003649  00000-0  00000-0 0   650",
      "2 32388   0.0000 176.6709 0003100 159.1100 272.2522  1.00272542    19"
    ],
    "HORIZONS 2          [PM]": [
      "1 32388C 07063B   20065.88712963 -.00000086  00000-0  00000-0 0   656",
      "2 32388   0.0000 163.5561 0003096 174.0879 230.6318  1.00272111    16"
    ],
    "GALAXY 18": [
      "1 32951C 08024A   20064.00000000  .00000122  00000-0  00000-0 0   644",
      "2 32951   0.0041 199.1962 0003062 144.5303  55.4671  1.00272731    17"
    ],
    "GALAXY 18-1": [
      "1 32951C 08024A   20065.00000000  .00000114  00000-0  00000-0 0   657",
      "2 32951   0.0004 175.3169 0003102 170.1340  54.7337  1.00272536    16"
    ],
    "GALAXY 18           [PM]": [
      "1 32951C 08024A   20065.62569444  .00000114  00000-0  00000-0 0   657",
      "2 32951   0.0009 169.6185 0003208 175.1981 281.2376  1.00270846    10"
    ],
    "INTELSAT 25": [
      "1 33153C 08034A   20064.00000000 -.00000134  00000-0  00000-0 0   644",
      "2 33153   0.0227 223.5763 0002681  82.0291 185.1087  1.00273602    17"
    ],
    "INTELSAT 25-1": [
      "1 33153C 08034A   20065.00000000 -.00000134  00000-0  00000-0 0   656",
      "2 33153   0.0197 209.1935 0003084  94.1697 188.3348  1.00272094    15"
    ],
    "INTELSAT 25         [PM]": [
      "1 33153C 08034A   20065.85171296 -.00000134  00000-0  00000-0 0   655",
      "2 33153   0.0176 198.4763 0003046 106.2919 134.3877  1.00271106    12"
    ],
    "GALAXY 19           [PM]": [
      "1 33376C 08045A   20063.43750000 -.00000048  00000-0  00000-0 0   634",
      "2 33376   0.0057 120.6109 0003197 215.7869 245.7498  1.00272298    14"
    ],
    "GALAXY 19": [
      "1 33376C 08045A   20064.00000000 -.00000049  00000-0  00000-0 0   648",
      "2 33376   0.0076 120.0798 0003210 216.8756  88.2476  1.00271534    14"
    ],
    "GALAXY 19-1": [
      "1 33376C 08045A   20065.00000000 -.00000049  00000-0  00000-0 0   650",
      "2 33376   0.0106 120.3533 0003238 218.2964  87.5391  1.00270997    15"
    ],
    "INTELSAT 14": [
      "1 36097C 09064A   20064.00000000 -.00000194  00000-0  00000-0 0   644",
      "2 36097   0.0051 187.2645 0002496 162.4097 127.5224  1.00267283    19"
    ],
    "INTELSAT 14         [PM]": [
      "1 36097C 09064A   20064.92611111 -.00000191  00000-0  00000-0 0   643",
      "2 36097   0.0039 171.9339 0002638 167.9991 111.5615  1.00273967    19"
    ],
    "INTELSAT 14-1": [
      "1 36097C 09064A   20065.00000000 -.00000179  00000-0  00000-0 0   659",
      "2 36097   0.0039 171.6960 0002650 168.6872 137.7845  1.00274081    19"
    ],
    "INTELSAT 15": [
      "1 36106C 09067A   20064.00000000 -.00000094  00000-0  00000-0 0   647",
      "2 36106   0.0057 109.9523 0002434 236.2155 261.1778  1.00271373    13"
    ],
    "INTELSAT 15         [PM]": [
      "1 36106C 09067A   20064.53439815 -.00000095  00000-0  00000-0 0   646",
      "2 36106   0.0073 110.7904 0002466 231.4828  97.9817  1.00273472    14"
    ],
    "INTELSAT 15-1": [
      "1 36106C 09067A   20065.00000000 -.00000095  00000-0  00000-0 0   650",
      "2 36106   0.0084 112.0916 0002501 231.4329 264.8089  1.00273561    15"
    ],
    "INTELSAT 16         [PM]": [
      "1 36397C 10006A   20063.99303241 -.00000153  00000-0  00000-0 0   639",
      "2 36397   0.0048 119.7771 0002237 215.0946 108.6119  1.00273131    11"
    ],
    "INTELSAT 16": [
      "1 36397C 10006A   20064.00000000 -.00000153  00000-0  00000-0 0   640",
      "2 36397   0.0048 119.9734 0002239 214.8663 111.1592  1.00273151    13"
    ],
    "INTELSAT 16-1": [
      "1 36397C 10006A   20065.00000000 -.00000155  00000-0  00000-0 0   654",
      "2 36397   0.0079 120.2538 0002278 216.4530 110.2826  1.00272406    10"
    ],
    "INTELSAT 17": [
      "1 37238C 10065B   20064.00000000  .00000086  00000-0  00000-0 0   644",
      "2 37238   0.0302 242.9430 0002724 100.4043 244.8523  1.00273154    13"
    ],
    "INTELSAT 17-1": [
      "1 37238C 10065B   20065.00000000  .00000088  00000-0  00000-0 0   658",
      "2 37238   0.0269 229.2464 0002783 114.1285 245.8107  1.00271752    16"
    ],
    "INTELSAT 17         [PM]": [
      "1 37238C 10065B   20065.77315972  .00000089  00000-0  00000-0 0   650",
      "2 37238   0.0254 219.4048 0002831 126.1719 162.7087  1.00271432    17"
    ],
    "INTELSAT NEW DAWN   [PM]": [
      "1 37392C 11016A   20063.97181713  .00000248  00000-0  00000-0 0   637",
      "2 37392   0.0239 215.7091 0001114  95.1175 233.9937  1.00271786    19"
    ],
    "INTELSAT NEW DAWN": [
      "1 37392C 11016A   20064.00000000  .00000247  00000-0  00000-0 0   641",
      "2 37392   0.0237 215.1388 0001119  95.6647 244.1904  1.00271778    13"
    ],
    "INTELSAT NEW DAWN-1": [
      "1 37392C 11016A   20065.00000000  .00000246  00000-0  00000-0 0   652",
      "2 37392   0.0219 203.9884 0001122 111.4310 240.5601  1.00271973    18"
    ],
    "INTELSAT 18         [PM]": [
      "1 37834C 11056A   20062.75197917  .00000139  00000-0  00000-0 0   628",
      "2 37834   0.0000 166.0763 0002813 197.8846 247.7071  1.00272259    10"
    ],
    "INTELSAT 18": [
      "1 37834C 11056A   20064.00000000  .00000135  00000-0  00000-0 0   642",
      "2 37834   0.0000 141.0165 0002847 223.8183 337.3536  1.00272097    12"
    ],
    "INTELSAT 18-1": [
      "1 37834C 11056A   20065.00000000  .00000143  00000-0  00000-0 0   653",
      "2 37834   0.0016 136.0268 0002916 229.9647 337.1855  1.00271852    16"
    ],
    "INTELSAT 22": [
      "1 38098C 12011A   20064.00000000  .00000029  00000-0  00000-0 0   649",
      "2 38098   0.0000 147.3673 0003070 191.1103 255.8283  1.00272181    13"
    ],
    "INTELSAT 22-1": [
      "1 38098C 12011A   20065.00000000  .00000031  00000-0  00000-0 0   654",
      "2 38098   0.0010 139.3912 0003118 200.2781 255.6233  1.00271945    18"
    ],
    "INTELSAT 22         [PM]": [
      "1 38098C 12011A   20066.11817130  .00000031  00000-0  00000-0 0   668",
      "2 38098   0.0299 258.5939 0003168  82.0858 298.2574  1.00270047    19"
    ],
    "INTELSAT 19": [
      "1 38356C 12030A   20064.00000000  .00000031  00000-0  00000-0 0   640",
      "2 38356   0.0000 137.5641 0003213 206.3638 344.2740  1.00264746    16"
    ],
    "INTELSAT 19-1": [
      "1 38356C 12030A   20065.00000000  .00000019  00000-0  00000-0 0   658",
      "2 38356   0.0029 134.1885 0003228 202.4073 352.5873  1.00271877    18"
    ],
    "INTELSAT 19         [PM]": [
      "1 38356C 12030A   20065.85266204  .00000030  00000-0  00000-0 0   654",
      "2 38356   0.0052 133.8396 0003292 204.3695 298.7737  1.00271856    16"
    ],
    "INTELSAT 20": [
      "1 38740C 12043A   20062.00000000  .00000066  00000-0  00000-0 0   625",
      "2 38740   0.0111 145.8747 0002418  43.2245  39.6288  1.00271317    17"
    ],
    "INTELSAT 20-1": [
      "1 38740C 12043A   20065.00000000  .00000066  00000-0  00000-0 0   651",
      "2 38740   0.0145 144.3657 0002304  47.3899  39.9337  1.00271126    18"
    ],
    "INTELSAT 20         [PM]": [
      "1 38740C 12043A   20065.24791667  .00000066  00000-0  00000-0 0   653",
      "2 38740   0.0149 145.7308 0002153  46.8873 128.5625  1.00271937    13"
    ],
    "INTELSAT 21": [
      "1 38749C 12045A   20064.00000000 -.00000195  00000-0  00000-0 0   644",
      "2 38749   0.0150 225.4657 0001533 201.0487  37.6878  1.00270646    10"
    ],
    "INTELSAT 21-1": [
      "1 38749C 12045A   20065.00000000 -.00000193  00000-0  00000-0 0   654",
      "2 38749   0.0087 200.2234 0001516 218.3292  46.6403  1.00272727    13"
    ],
    "INTELSAT 21         [PM]": [
      "1 38749C 12045A   20065.78635417 -.00000202  00000-0  00000-0 0   656",
      "2 38749   0.0061 188.1842 0001592 231.4814 329.3934  1.00271676    16"
    ],
    "INTELSAT 23": [
      "1 38867C 12057A   20064.00000000 -.00000195  00000-0  00000-0 0   648",
      "2 38867   0.0020 142.3182 0002042 193.0799 133.7900  1.00269049    18"
    ],
    "INTELSAT 23         [PM]": [
      "1 38867C 12057A   20064.88449074 -.00000195  00000-0  00000-0 0   642",
      "2 38867   0.0046 137.3913 0002108 188.3054 102.7709  1.00273922    14"
    ],
    "INTELSAT 23-1": [
      "1 38867C 12057A   20065.00000000 -.00000235  00000-0  00000-0 0   655",
      "2 38867   0.0049 137.7331 0002132 188.7655 143.6672  1.00274075    16"
    ],
    "INTELSAT 30": [
      "1 40271C 14062A   20062.00000000 -.00000107  00000-0  00000-0 0   627",
      "2 40271   0.0008 127.8634 0001469 358.2885 299.0234  1.00271649    14"
    ],
    "INTELSAT 30         [PM]": [
      "1 40271C 14062A   20064.12500000 -.00000096  00000-0  00000-0 0   646",
      "2 40271   0.0017 126.2268 0001467 359.5447 346.4943  1.00273298    12"
    ],
    "INTELSAT 30-1": [
      "1 40271C 14062A   20065.00000000 -.00000064  00000-0  00000-0 0   655",
      "2 40271   0.0052 123.4524 0001393 358.0102 306.6686  1.00270857    15"
    ],
    "INTELSAT 34": [
      "1 40874C 15039A   20062.00000000 -.00000231  00000-0  00000-0 0   629",
      "2 40874   0.0000 137.8308 0000780 108.3665 218.5607  1.00271173    11"
    ],
    "INTELSAT 34-1": [
      "1 40874C 15039A   20065.00000000 -.00000238  00000-0  00000-0 0   652",
      "2 40874   0.0024 128.4157 0000747 127.7849 211.5106  1.00269589    12"
    ],
    "INTELSAT 34         [PM]": [
      "1 40874C 15039A   20065.30388889 -.00000195  00000-0  00000-0 0   651",
      "2 40874   0.0015 119.7946 0000782 121.4902 336.1204  1.00273343    17"
    ],
    "INTELSAT 31": [
      "1 41581C 16035A   20062.00000000 -.00000061  00000-0  00000-0 0   623",
      "2 41581   0.0156 211.2950 0002710 359.1646 214.7204  1.00271388    18"
    ],
    "INTELSAT 31-1": [
      "1 41581C 16035A   20065.00000000 -.00000061  00000-0  00000-0 0   659",
      "2 41581   0.0149 197.9699 0002754  13.4450 216.7218  1.00269931    19"
    ],
    "INTELSAT 31         [PM]": [
      "1 41581C 16035A   20065.12150463 -.00000061  00000-0  00000-0 0   651",
      "2 41581   0.0156 199.0637 0002801  11.7959 261.1350  1.00273029    14"
    ],
    "INTELSAT 36": [
      "1 41747C 16053A   20062.00000000  .00000066  00000-0  00000-0 0   621",
      "2 41747   0.0147  49.9047 0001078 295.2605 243.5680  1.00271321    11"
    ],
    "INTELSAT 36-1": [
      "1 41747C 16053A   20065.00000000  .00000068  00000-0  00000-0 0   659",
      "2 41747   0.0060  79.6223 0001100 259.4166 252.6521  1.00270951    14"
    ],
    "INTELSAT 36         [PM]": [
      "1 41747C 16053A   20066.08949074  .00000067  00000-0  00000-0 0   661",
      "2 41747   0.0080  75.8739 0001293 254.8323 294.2733  1.00271793    15"
    ],
    "INTELSAT 33E": [
      "1 41748C 16053B   20064.00000000  .00000125  00000-0  00000-0 0   642",
      "2 41748   0.0385 341.9214 0001811 357.8971 242.3781  1.00272801    16"
    ],
    "INTELSAT 33E-1": [
      "1 41748C 16053B   20065.00000000  .00000134  00000-0  00000-0 0   654",
      "2 41748   0.0379 353.2775 0001953 346.1629 243.7403  1.00270953    17"
    ],
    "INTELSAT 33E        [PM]": [
      "1 41748C 16053B   20065.35579861  .00000135  00000-0  00000-0 0   659",
      "2 41748   0.0382 355.8272 0001926 345.3450  10.4465  1.00270130    18"
    ]  }, {
    "INTELSAT 32E": [
      "1 41945C 17007B   20064.00000000 -.00000179  00000-0  00000-0 0   641",
      "2 41945   0.0042 123.6851 0000441 149.0735 206.2663  1.00270166    14"
    ],
    "INTELSAT 32E        [PM]": [
      "1 41945C 17007B   20064.94859954 -.00000179  00000-0  00000-0 0   644",
      "2 41945   0.0039 125.7829 0000597 172.1585 163.5033  1.00274328    10"
    ],
    "INTELSAT 32E-1": [
      "1 41945C 17007B   20065.00000000 -.00000179  00000-0  00000-0 0   653",
      "2 41945   0.0074 123.2794 0000480 161.5472 195.1774  1.00270638    14"
    ],
    "INTELSAT 35E": [
      "1 42818C 17041A   20064.00000000 -.00000148  00000-0  00000-0 0   645",
      "2 42818   0.0224 190.0229 0002304 157.5689 140.1100  1.00270585    12"
    ],
    "INTELSAT 35E-1": [
      "1 42818C 17041A   20065.00000000 -.00000146  00000-0  00000-0 0   655",
      "2 42818   0.0228 182.7046 0002365 166.1248 139.8531  1.00269883    17"
    ],
    "INTELSAT 35E        [PM]": [
      "1 42818C 17041A   20067.95130787 -.00000148  00000-0  00000-0 0   671",
      "2 42818   0.0293 200.6454 0002422 148.1319 125.2766  1.00272053    17"
    ],
    "INTELSAT 37E": [
      "1 42950C 17059A   20064.00000000 -.00000062  00000-0  00000-0 0   646",
      "2 42950   0.0370 319.3637 0001997  15.8561 168.9904  1.00272210    19"
    ],
    "INTELSAT 37E        [PM]": [
      "1 42950C 17059A   20064.04513889 -.00000038  00000-0  00000-0 0   647",
      "2 42950   0.0371 319.3250 0001987  16.0406 185.1389  1.00272256    19"
    ],
    "INTELSAT 37E-1": [
      "1 42950C 17059A   20065.00000000 -.00000066  00000-0  00000-0 0   652",
      "2 42950   0.0404 320.0266 0002043  17.1276 168.0423  1.00271722    19"
    ],
    "AZERSPACE 2": [
      "1 43632C 18074A   20062.00000000  .00000227  00000-0  00000-0 0   620",
      "2 43632   0.0001 144.8411 0001579 185.2789 235.2083  1.00271341    19"
    ],
    "AZERSPACE 2-1": [
      "1 43632C 18074A   20065.00000000  .00000227  00000-0  00000-0 0   656",
      "2 43632   0.0073 124.8844 0001669 212.8964 230.5078  1.00272522    12"
    ],
    "HORIZONS 3E": [
      "1 43633C 18074B   20062.00000000  .00000059  00000-0  00000-0 0   624",
      "2 43633   0.0012 251.3362 0000353  25.1711  52.7244  1.00271105    16"
    ],
    "HORIZONS 3E-1": [
      "1 43633C 18074B   20065.00000000  .00000059  00000-0  00000-0 0   650",
      "2 43633   0.0131  34.1476 0000202 271.0927  26.9535  1.00270209    15"
    ],
    "INTELSAT 39": [
      "1 44476C 19049B   20062.00000000  .00000122  00000-0  00000-0 0   624",
      "2 44476   0.0000 135.3996 0000338 243.8400 202.9383  1.00271723    19"
    ],
    "INTELSAT 39-1": [
      "1 44476C 19049B   20065.00000000  .00000123  00000-0  00000-0 0   651",
      "2 44476   0.0020 132.7286 0000414 232.5849 219.8179  1.00271259    15"
    ],
    "INTELSAT 39         [PM]": [
      "1 44476C 19049B   20065.13232639  .00000095  00000-0  00000-0 0   658",
      "2 44476   0.0001 133.2175 0000540 211.9206 287.7647  1.00272232    11"
    ]
  }]
}
